{
  "type": "FeatureCollection",
  "features": [
    {
      "type": "Feature",
      "properties": {
        "norad_id": 31448,
        "name": "FENGYUN 1C DEB",
        "group": "fengyun-1c-debris",
        "lat": 18.770147077160082,
        "lon": -171.84046512578212,
        "alt_km": 759.7635916075387,
        "timestamp": "2025-12-20T03:42:47.675652+00:00",
        "meta_object_name": "FENGYUN 1C DEB",
        "meta_object_id": "1999-025BUL",
        "meta_epoch": "2025-12-11T07:02:55.403520",
        "meta_mean_motion": 14.278066,
        "meta_eccentricity": 0.00588763,
        "meta_inclination": 98.5011,
        "meta_ra_of_asc_node": 356.6233,
        "meta_arg_of_pericenter": 208.3666,
        "meta_mean_anomaly": 151.4306,
        "meta_ephemeris_type": 0,
        "meta_classification_type": "U",
        "meta_norad_cat_id": 31448,
        "meta_element_set_no": 999,
        "meta_rev_at_epoch": 64283,
        "meta_bstar": 0.0011152887,
        "meta_mean_motion_dot": 2.766e-05,
        "meta_mean_motion_ddot": 0,
        "tle_line1": "1 31448U 99025BUL 25345.29369680  .00002766  00000+0  11153-2 0  9990",
        "tle_line2": "2 31448  98.5011 356.6233 0058876 208.3666 151.4306 14.27806600642836"
      },
      "geometry": {
        "type": "Point",
        "coordinates": [
          -171.84046512578212,
          18.770147077160082
        ]
      }
    },
    {
      "type": "Feature",
      "properties": {
        "norad_id": 31449,
        "name": "FENGYUN 1C DEB",
        "group": "fengyun-1c-debris",
        "lat": -56.25669040053308,
        "lon": 65.60989544389508,
        "alt_km": 727.9057025926932,
        "timestamp": "2025-12-20T03:42:47.675663+00:00",
        "meta_object_name": "FENGYUN 1C DEB",
        "meta_object_id": "1999-025BUM",
        "meta_epoch": "2025-12-18T10:06:19.983168",
        "meta_mean_motion": 14.3371753,
        "meta_eccentricity": 0.01441204,
        "meta_inclination": 98.5541,
        "meta_ra_of_asc_node": 50.874,
        "meta_arg_of_pericenter": 251.7943,
        "meta_mean_anomaly": 106.7508,
        "meta_ephemeris_type": 0,
        "meta_classification_type": "U",
        "meta_norad_cat_id": 31449,
        "meta_element_set_no": 999,
        "meta_rev_at_epoch": 97718,
        "meta_bstar": 0.00018963183,
        "meta_mean_motion_dot": 5.43e-06,
        "meta_mean_motion_ddot": 0,
        "tle_line1": "1 31449U 99025BUM 25352.42106462  .00000543  00000+0  18963-3 0  9999",
        "tle_line2": "2 31449  98.5541  50.8740 0144120 251.7943 106.7508 14.33717530977185"
      },
      "geometry": {
        "type": "Point",
        "coordinates": [
          65.60989544389508,
          -56.25669040053308
        ]
      }
    },
    {
      "type": "Feature",
      "properties": {
        "norad_id": 31451,
        "name": "FENGYUN 1C DEB",
        "group": "fengyun-1c-debris",
        "lat": -75.0045724300381,
        "lon": -179.08164646115074,
        "alt_km": 845.5512790243456,
        "timestamp": "2025-12-20T03:42:47.675673+00:00",
        "meta_object_name": "FENGYUN 1C DEB",
        "meta_object_id": "1999-025BUP",
        "meta_epoch": "2025-12-17T01:35:52.740960",
        "meta_mean_motion": 14.13630438,
        "meta_eccentricity": 0.00314143,
        "meta_inclination": 98.7632,
        "meta_ra_of_asc_node": 33.0517,
        "meta_arg_of_pericenter": 198.9237,
        "meta_mean_anomaly": 191.5319,
        "meta_ephemeris_type": 0,
        "meta_classification_type": "U",
        "meta_norad_cat_id": 31451,
        "meta_element_set_no": 999,
        "meta_rev_at_epoch": 96071,
        "meta_bstar": 0.00034950868,
        "meta_mean_motion_dot": 6.19e-06,
        "meta_mean_motion_ddot": 0,
        "tle_line1": "1 31451U 99025BUP 25351.06658265  .00000619  00000+0  34951-3 0  9993",
        "tle_line2": "2 31451  98.7632  33.0517 0031414 198.9237 191.5319 14.13630438960717"
      },
      "geometry": {
        "type": "Point",
        "coordinates": [
          -179.08164646115074,
          -75.0045724300381
        ]
      }
    },
    {
      "type": "Feature",
      "properties": {
        "norad_id": 31452,
        "name": "FENGYUN 1C DEB",
        "group": "fengyun-1c-debris",
        "lat": -16.25017651856313,
        "lon": 158.33287019395326,
        "alt_km": 845.9782675588585,
        "timestamp": "2025-12-20T03:42:47.675683+00:00",
        "meta_object_name": "FENGYUN 1C DEB",
        "meta_object_id": "1999-025BUQ",
        "meta_epoch": "2025-12-17T05:13:17.668704",
        "meta_mean_motion": 14.15174584,
        "meta_eccentricity": 0.00409624,
        "meta_inclination": 98.6577,
        "meta_ra_of_asc_node": 338.0277,
        "meta_arg_of_pericenter": 115.448,
        "meta_mean_anomaly": 245.0941,
        "meta_ephemeris_type": 0,
        "meta_classification_type": "U",
        "meta_norad_cat_id": 31452,
        "meta_element_set_no": 999,
        "meta_rev_at_epoch": 96269,
        "meta_bstar": 0.00032143342,
        "meta_mean_motion_dot": 5.87e-06,
        "meta_mean_motion_ddot": 0,
        "tle_line1": "1 31452U 99025BUQ 25351.21756561  .00000587  00000+0  32143-3 0  9994",
        "tle_line2": "2 31452  98.6577 338.0277 0040962 115.4480 245.0941 14.15174584962690"
      },
      "geometry": {
        "type": "Point",
        "coordinates": [
          158.33287019395326,
          -16.25017651856313
        ]
      }
    },
    {
      "type": "Feature",
      "properties": {
        "norad_id": 31455,
        "name": "FENGYUN 1C DEB",
        "group": "fengyun-1c-debris",
        "lat": 74.06975279696739,
        "lon": -49.85134054333553,
        "alt_km": 736.6187682024256,
        "timestamp": "2025-12-20T03:42:47.675692+00:00",
        "meta_object_name": "FENGYUN 1C DEB",
        "meta_object_id": "1999-025BUT",
        "meta_epoch": "2025-12-19T18:51:35.164224",
        "meta_mean_motion": 14.11438267,
        "meta_eccentricity": 0.0218375,
        "meta_inclination": 98.5746,
        "meta_ra_of_asc_node": 341.7069,
        "meta_arg_of_pericenter": 31.2105,
        "meta_mean_anomaly": 330.1824,
        "meta_ephemeris_type": 0,
        "meta_classification_type": "U",
        "meta_norad_cat_id": 31455,
        "meta_element_set_no": 999,
        "meta_rev_at_epoch": 96203,
        "meta_bstar": 0.0002098,
        "meta_mean_motion_dot": 4.33e-06,
        "meta_mean_motion_ddot": 0,
        "tle_line1": "1 31455U 99025BUT 25353.78582366  .00000433  00000+0  20980-3 0  9997",
        "tle_line2": "2 31455  98.5746 341.7069 0218375  31.2105 330.1824 14.11438267962035"
      },
      "geometry": {
        "type": "Point",
        "coordinates": [
          -49.85134054333553,
          74.06975279696739
        ]
      }
    },
    {
      "type": "Feature",
      "properties": {
        "norad_id": 31456,
        "name": "FENGYUN 1C DEB",
        "group": "fengyun-1c-debris",
        "lat": 17.293620528156243,
        "lon": -80.76424592915055,
        "alt_km": 781.3866439354697,
        "timestamp": "2025-12-20T03:42:47.675703+00:00",
        "meta_object_name": "FENGYUN 1C DEB",
        "meta_object_id": "1999-025BUU",
        "meta_epoch": "2025-12-17T13:21:30.732480",
        "meta_mean_motion": 14.42423971,
        "meta_eccentricity": 0.00676593,
        "meta_inclination": 98.5778,
        "meta_ra_of_asc_node": 93.9301,
        "meta_arg_of_pericenter": 299.6577,
        "meta_mean_anomaly": 59.7886,
        "meta_ephemeris_type": 0,
        "meta_classification_type": "U",
        "meta_norad_cat_id": 31456,
        "meta_element_set_no": 999,
        "meta_rev_at_epoch": 97536,
        "meta_bstar": 0.0006424571,
        "meta_mean_motion_dot": 2.138e-05,
        "meta_mean_motion_ddot": 0,
        "tle_line1": "1 31456U 99025BUU 25351.55660570  .00002138  00000+0  64246-3 0  9992",
        "tle_line2": "2 31456  98.5778  93.9301 0067659 299.6577  59.7886 14.42423971975368"
      },
      "geometry": {
        "type": "Point",
        "coordinates": [
          -80.76424592915055,
          17.293620528156243
        ]
      }
    },
    {
      "type": "Feature",
      "properties": {
        "norad_id": 31459,
        "name": "FENGYUN 1C DEB",
        "group": "fengyun-1c-debris",
        "lat": 27.690123326909337,
        "lon": 86.46061724427587,
        "alt_km": 694.0918618691157,
        "timestamp": "2025-12-20T03:42:47.675713+00:00",
        "meta_object_name": "FENGYUN 1C DEB",
        "meta_object_id": "1999-025BUX",
        "meta_epoch": "2025-12-12T23:44:38.705568",
        "meta_mean_motion": 14.44083824,
        "meta_eccentricity": 0.00940456,
        "meta_inclination": 98.1765,
        "meta_ra_of_asc_node": 255.2445,
        "meta_arg_of_pericenter": 130.906,
        "meta_mean_anomaly": 230.0325,
        "meta_ephemeris_type": 0,
        "meta_classification_type": "U",
        "meta_norad_cat_id": 31459,
        "meta_element_set_no": 999,
        "meta_rev_at_epoch": 64561,
        "meta_bstar": 0.0020176648,
        "meta_mean_motion_dot": 7.253e-05,
        "meta_mean_motion_ddot": 0,
        "tle_line1": "1 31459U 99025BUX 25346.98933687  .00007253  00000+0  20177-2 0  9995",
        "tle_line2": "2 31459  98.1765 255.2445 0094045 130.9060 230.0325 14.44083824645613"
      },
      "geometry": {
        "type": "Point",
        "coordinates": [
          86.46061724427587,
          27.690123326909337
        ]
      }
    }
  ]
}